{
  "type": "FeatureCollection",
  "features": [
    {
      "type": "Feature",
      "properties": {
        "norad_id": 27954,
        "name": "GALAXY 13 (HORIZONS-1)",
        "group": "intelsat",
        "lat": 0.26415218238256594,
        "lon": -111.98170770934647,
        "alt_km": 35776.89199060095,
        "timestamp": "2025-12-04T21:36:15.541957+00:00",
        "meta_object_name": "GALAXY 13 (HORIZONS-1)",
        "meta_object_id": "2003-044A",
        "meta_epoch": "2025-12-04T09:35:17.454048",
        "meta_mean_motion": 1.0027297,
        "meta_eccentricity": 0.00020681,
        "meta_inclination": 0.914,
        "meta_ra_of_asc_node": 86.5762,
        "meta_arg_of_pericenter": 162.731,
        "meta_mean_anomaly": 177.9893,
        "meta_ephemeris_type": 0,
        "meta_classification_type": "U",
        "meta_norad_cat_id": 27954,
        "meta_element_set_no": 999,
        "meta_rev_at_epoch": 4461,
        "meta_bstar": 0,
        "meta_mean_motion_dot": 1.47e-06,
        "meta_mean_motion_ddot": 0,
        "tle_line1": "1 27954U 03044A   25338.39950757  .00000147  00000+0  00000+0 0  9994",
        "tle_line2": "2 27954   0.9140  86.5762 0002068 162.7310 177.9893  1.00272970 44610"
      },
      "geometry": {
        "type": "Point",
        "coordinates": [
          -111.98170770934647,
          0.26415218238256594
        ]
      }
    },
    {
      "type": "Feature",
      "properties": {
        "norad_id": 28358,
        "name": "INTELSAT 10-02",
        "group": "intelsat",
        "lat": 0.005439327104955223,
        "lon": 37.02827050542278,
        "alt_km": 35788.63481610352,
        "timestamp": "2025-12-04T21:36:15.541969+00:00",
        "meta_object_name": "INTELSAT 10-02",
        "meta_object_id": "2004-022A",
        "meta_epoch": "2025-12-04T13:43:19.636320",
        "meta_mean_motion": 1.00270533,
        "meta_eccentricity": 0.00011059,
        "meta_inclination": 0.0398,
        "meta_ra_of_asc_node": 80.5364,
        "meta_arg_of_pericenter": 198.4506,
        "meta_mean_anomaly": 359.4943,
        "meta_ephemeris_type": 0,
        "meta_classification_type": "U",
        "meta_norad_cat_id": 28358,
        "meta_element_set_no": 999,
        "meta_rev_at_epoch": 7860,
        "meta_bstar": 0,
        "meta_mean_motion_dot": 4e-08,
        "meta_mean_motion_ddot": 0,
        "tle_line1": "1 28358U 04022A   25338.57175505  .00000004  00000+0  00000+0 0  9992",
        "tle_line2": "2 28358   0.0398  80.5364 0001105 198.4506 359.4943  1.00270533 78603"
      },
      "geometry": {
        "type": "Point",
        "coordinates": [
          37.02827050542278,
          0.005439327104955223
        ]
      }
    },
    {
      "type": "Feature",
      "properties": {
        "norad_id": 28626,
        "name": "XM-3 (RHYTHM)",
        "group": "intelsat",
        "lat": 0.12310794013326493,
        "lon": -170.48481475333074,
        "alt_km": 36163.090633725486,
        "timestamp": "2025-12-04T21:36:15.541980+00:00",
        "meta_object_name": "XM-3 (RHYTHM)",
        "meta_object_id": "2005-008A",
        "meta_epoch": "2025-12-04T12:44:32.765856",
        "meta_mean_motion": 0.98954878,
        "meta_eccentricity": 0.00010018,
        "meta_inclination": 0.1521,
        "meta_ra_of_asc_node": 80.9228,
        "meta_arg_of_pericenter": 260.4132,
        "meta_mean_anomaly": 76.6625,
        "meta_ephemeris_type": 0,
        "meta_classification_type": "U",
        "meta_norad_cat_id": 28626,
        "meta_element_set_no": 999,
        "meta_rev_at_epoch": 4066,
        "meta_bstar": 0,
        "meta_mean_motion_dot": -2.56e-06,
        "meta_mean_motion_ddot": 0,
        "tle_line1": "1 28626U 05008A   25338.53093479 -.00000256  00000+0  00000+0 0  9990",
        "tle_line2": "2 28626   0.1521  80.9228 0001001 260.4132  76.6625  0.98954878 40660"
      },
      "geometry": {
        "type": "Point",
        "coordinates": [
          -170.48481475333074,
          0.12310794013326493
        ]
      }
    },
    {
      "type": "Feature",
      "properties": {
        "norad_id": 28659,
        "name": "DIRECTV 8",
        "group": "intelsat",
        "lat": -0.030819507220338677,
        "lon": -81.01825546938173,
        "alt_km": 35773.87754534815,
        "timestamp": "2025-12-04T21:36:15.541992+00:00",
        "meta_object_name": "DIRECTV 8",
        "meta_object_id": "2005-019A",
        "meta_epoch": "2025-12-04T09:44:09.105216",
        "meta_mean_motion": 1.00271046,
        "meta_eccentricity": 0.00032663,
        "meta_inclination": 0.0176,
        "meta_ra_of_asc_node": 322.8972,
        "meta_arg_of_pericenter": 289.5965,
        "meta_mean_anomaly": 207.9778,
        "meta_ephemeris_type": 0,
        "meta_classification_type": "U",
        "meta_norad_cat_id": 28659,
        "meta_element_set_no": 999,
        "meta_rev_at_epoch": 7512,
        "meta_bstar": 0,
        "meta_mean_motion_dot": 1.6e-07,
        "meta_mean_motion_ddot": 0,
        "tle_line1": "1 28659U 05019A   25338.40566094  .00000016  00000+0  00000+0 0  9995",
        "tle_line2": "2 28659   0.0176 322.8972 0003266 289.5965 207.9778  1.00271046 75126"
      },
      "geometry": {
        "type": "Point",
        "coordinates": [
          -81.01825546938173,
          -0.030819507220338677
        ]
      }
    },
    {
      "type": "Feature",
      "properties": {
        "norad_id": 28702,
        "name": "GALAXY 28 (G-28)",
        "group": "intelsat",
        "lat": -2.0889425927266,
        "lon": -50.68515220635308,
        "alt_km": 35780.10262236967,
        "timestamp": "2025-12-04T21:36:15.542004+00:00",
        "meta_object_name": "GALAXY 28 (G-28)",
        "meta_object_id": "2005-022A",
        "meta_epoch": "2025-12-04T13:18:14.538816",
        "meta_mean_motion": 1.00272119,
        "meta_eccentricity": 0.00026362,
        "meta_inclination": 2.7977,
        "meta_ra_of_asc_node": 81.3766,
        "meta_arg_of_pericenter": 171.5466,
        "meta_mean_anomaly": 291.5686,
        "meta_ephemeris_type": 0,
        "meta_classification_type": "U",
        "meta_norad_cat_id": 28702,
        "meta_element_set_no": 999,
        "meta_rev_at_epoch": 5002,
        "meta_bstar": 0,
        "meta_mean_motion_dot": -1.74e-06,
        "meta_mean_motion_ddot": 0,
        "tle_line1": "1 28702U 05022A   25338.55433494 -.00000174  00000+0  00000+0 0  9997",
        "tle_line2": "2 28702   2.7977  81.3766 0002636 171.5466 291.5686  1.00272119 50028"
      },
      "geometry": {
        "type": "Point",
        "coordinates": [
          -50.68515220635308,
          -2.0889425927266
        ]
      }
    },
    {
      "type": "Feature",
      "properties": {
        "norad_id": 29236,
        "name": "GALAXY 16 (G-16)",
        "group": "intelsat",
        "lat": 0.0016096182258088707,
        "lon": -60.97385776614208,
        "alt_km": 35777.08175721692,
        "timestamp": "2025-12-04T21:36:15.542016+00:00",
        "meta_object_name": "GALAXY 16 (G-16)",
        "meta_object_id": "2006-023A",
        "meta_epoch": "2025-12-04T09:49:53.556096",
        "meta_mean_motion": 1.00271171,
        "meta_eccentricity": 0.00029533,
        "meta_inclination": 0.0259,
        "meta_ra_of_asc_node": 211.8761,
        "meta_arg_of_pericenter": 44.3815,
        "meta_mean_anomaly": 225.6909,
        "meta_ephemeris_type": 0,
        "meta_classification_type": "U",
        "meta_norad_cat_id": 29236,
        "meta_element_set_no": 999,
        "meta_rev_at_epoch": 7102,
        "meta_bstar": 0,
        "meta_mean_motion_dot": -1.12e-06,
        "meta_mean_motion_ddot": 0,
        "tle_line1": "1 29236U 06023A   25338.40964764 -.00000112  00000+0  00000+0 0  9997",
        "tle_line2": "2 29236   0.0259 211.8761 0002953  44.3815 225.6909  1.00271171 71023"
      },
      "geometry": {
        "type": "Point",
        "coordinates": [
          -60.97385776614208,
          0.0016096182258088707
        ]
      }
    },
    {
      "type": "Feature",
      "properties": {
        "norad_id": 29494,
        "name": "DIRECTV 9S",
        "group": "intelsat",
        "lat": -1.0746923794861245,
        "lon": -63.18096442688878,
        "alt_km": 35776.580969152164,
        "timestamp": "2025-12-04T21:36:15.542027+00:00",
        "meta_object_name": "DIRECTV 9S",
        "meta_object_id": "2006-043A",
        "meta_epoch": "2025-12-04T13:14:44.872800",
        "meta_mean_motion": 1.00270512,
        "meta_eccentricity": 0.00032371,
        "meta_inclination": 1.9176,
        "meta_ra_of_asc_node": 83.2962,
        "meta_arg_of_pericenter": 170.3541,
        "meta_mean_anomaly": 277.4541,
        "meta_ephemeris_type": 0,
        "meta_classification_type": "U",
        "meta_norad_cat_id": 29494,
        "meta_element_set_no": 999,
        "meta_rev_at_epoch": 4943,
        "meta_bstar": 0,
        "meta_mean_motion_dot": -9.9e-07,
        "meta_mean_motion_ddot": 0,
        "tle_line1": "1 29494U 06043A   25338.55190825 -.00000099  00000+0  00000+0 0  9994",
        "tle_line2": "2 29494   1.9176  83.2962 0003237 170.3541 277.4541  1.00270512 49438"
      },
      "geometry": {
        "type": "Point",
        "coordinates": [
          -63.18096442688878,
          -1.0746923794861245
        ]
      }
    }
  ]
}